NORAD_CAT_ID,OBJECT_NAME,OBJECT_TYPE,EPOCH,MEAN_MOTION,ECCENTRICITY,INCLINATION,RA_OF_ASC_NODE,ARG_OF_PERICENTER,MEAN_ANOMALY,BSTAR,MEAN_MOTION_DOT,MEAN_MOTION_DDOT,TLE_LINE0,TLE_LINE1,TLE_LINE2,SEMIMAJOR_AXIS,PERIOD,APOGEE,PERIGEE,DECAYED
51863.0,STARLINK-3555,PAYLOAD,2024-07-25 22:01:21,15.0884863,0.0001356,53.216,145.6911,94.9843,265.1304,0.00034062,5.138e-05,0.0,0 STARLINK-3555,1 51863U 22022M   24207.91760586  .00005138  00000-0  34062-3 0  9993,2 51863  53.2160 145.6911 0001356  94.9843 265.1304 15.08848630133776,6917.854,95.437,540.657,538.781,0.0
51863.0,STARLINK-3555,PAYLOAD,2024-07-26 07:33:39,15.08862223,0.000132,53.2159,143.9073,99.8419,260.2722,0.0018965,0.00030042,0.0,0 STARLINK-3555,1 51863U 22022M   24208.31504398  .00030042  00000-0  18965-2 0  9990,2 51863  53.2159 143.9073 0001320  99.8419 260.2722 15.08862223133839,6917.812,95.436,540.591,538.764,0.0
51863.0,STARLINK-3555,PAYLOAD,2024-07-26 20:16:45,15.08850552,0.0001347,53.2158,141.5285,99.4667,260.6477,0.00089074,0.00013921,0.0,0 STARLINK-3555,1 51863U 22022M   24208.84496540  .00013921  00000-0  89074-3 0  9994,2 51863  53.2158 141.5285 0001347  99.4667 260.6477 15.08850552133919,6917.848,95.437,540.645,538.781,0.0
51863.0,STARLINK-3555,PAYLOAD,2024-07-26 21:52:08,15.08850405,0.000136,53.2157,141.2315,98.8548,261.2598,0.00082493,0.00012869,0.0,0 STARLINK-3555,1 51863U 22022M   24208.91120490  .00012869  00000-0  82493-3 0  9998,2 51863  53.2157 141.2315 0001360  98.8548 261.2598 15.08850405133924,6917.849,95.437,540.654,538.773,0.0
51863.0,STARLINK-3555,PAYLOAD,2024-07-26 23:27:31,15.08851836,0.00014,53.2158,140.934,98.1631,261.952,0.00089072,0.00013921,0.0,0 STARLINK-3555,1 51863U 22022M   24208.97744471  .00013921  00000-0  89072-3 0  9995,2 51863  53.2158 140.9340 0001400  98.1631 261.9520 15.08851836133932,6917.844,95.437,540.678,538.741,0.0
51863.0,STARLINK-3555,PAYLOAD,2024-07-28 02:29:05,15.08822399,0.0001473,53.2152,135.8787,59.682,300.4318,0.0014444,0.00022763,0.0,0 STARLINK-3555,1 51863U 22022M   24210.10353281  .00022763  00000-0  14444-2 0  9992,2 51863  53.2152 135.8787 0001473  59.6820 300.4318 15.08822399134102,6917.934,95.439,540.818,538.78,0.0
51863.0,STARLINK-3555,PAYLOAD,2024-07-28 12:01:24,15.08834334,0.0001245,53.2151,134.094,87.0557,273.0577,0.00093476,0.00014618,0.0,0 STARLINK-3555,1 51863U 22022M   24210.50097415  .00014618  00000-0  93476-3 0  9993,2 51863  53.2151 134.0940 0001245  87.0557 273.0577 15.08834334134162,6917.898,95.438,540.624,538.901,0.0
51863.0,STARLINK-3555,PAYLOAD,2024-07-29 02:19:52,15.08841312,0.0001278,53.2152,131.419,91.2555,268.8584,0.00039724,6.04e-05,0.0,0 STARLINK-3555,1 51863U 22022M   24211.09713421  .00006040  00000-0  39724-3 0  9996,2 51863  53.2152 131.4190 0001278  91.2555 268.8584 15.08841312134256,6917.876,95.437,540.625,538.857,0.0
51863.0,STARLINK-3555,PAYLOAD,2024-07-29 11:52:11,15.08844321,0.0001322,53.2157,129.6335,87.0315,273.0828,0.00039796,6.052e-05,0.0,0 STARLINK-3555,1 51863U 22022M   24211.49457422  .00006052  00000-0  39796-3 0  9998,2 51863  53.2157 129.6335 0001322  87.0315 273.0828 15.08844321134317,6917.867,95.437,540.647,538.818,0.0
51863.0,STARLINK-3555,PAYLOAD,2024-07-29 18:13:43,15.08845431,0.0001308,53.2153,128.4447,85.2317,274.8825,0.00034407,5.193e-05,0.0,0 STARLINK-3555,1 51863U 22022M   24211.75953383  .00005193  00000-0  34407-3 0  9993,2 51863  53.2153 128.4447 0001308  85.2317 274.8825 15.08845431134353,6917.864,95.437,540.634,538.824,0.0
51863.0,STARLINK-3555,PAYLOAD,2024-07-30 00:35:16,15.08843091,0.000128,53.2153,127.2555,88.1258,271.988,0.00025498,3.773e-05,0.0,0 STARLINK-3555,1 51863U 22022M   24212.02449484  .00003773  00000-0  25498-3 0  9998,2 51863  53.2153 127.2555 0001280  88.1258 271.9880 15.08843091134398,6917.871,95.437,540.621,538.85,0.0
51863.0,STARLINK-3555,PAYLOAD,2024-07-30 22:50:40,15.08848849,0.0001407,53.2146,123.0923,86.3665,273.7488,0.00024237,3.572e-05,0.0,0 STARLINK-3555,1 51863U 22022M   24212.95185198  .00003572  00000-0  24237-3 0  9996,2 51863  53.2146 123.0923 0001407  86.3665 273.7488 15.08848849134532,6917.853,95.437,540.692,538.745,0.0
51863.0,STARLINK-3555,PAYLOAD,2024-07-31 11:33:45,15.08846887,0.0001441,53.2157,120.7143,80.4147,279.7007,0.00015926,2.248e-05,0.0,0 STARLINK-3555,1 51863U 22022M   24213.48177110  .00002248  00000-0  15926-3 0  9994,2 51863  53.2157 120.7143 0001441  80.4147 279.7007 15.08846887134612,6917.859,95.437,540.721,538.727,0.0
51863.0,STARLINK-3555,PAYLOAD,2024-07-31 22:41:27,15.08841784,0.0001724,53.2166,118.6317,97.478,262.6408,8.9665e-05,1.139e-05,0.0,0 STARLINK-3555,1 51863U 22022M   24213.94545572  .00001139  00000-0  89665-4 0  9996,2 51863  53.2166 118.6317 0001724  97.4780 262.6408 15.08841784134680,6917.875,95.437,540.933,538.547,0.0
51863.0,STARLINK-3555,PAYLOAD,2024-08-01 00:16:50,15.08843489,0.0001615,53.2157,118.3335,98.1562,261.9613,0.00013569,1.872e-05,0.0,0 STARLINK-3555,1 51863U 22022M   24214.01169495  .00001872  00000-0  13569-3 0  9994,2 51863  53.2157 118.3335 0001615  98.1562 261.9613 15.08843489134697,6917.87,95.437,540.852,538.617,0.0
51863.0,STARLINK-3555,PAYLOAD,2024-08-01 22:32:13,15.08856916,0.0001494,53.2178,114.1724,96.7334,263.3828,0.00037849,5.744e-05,0.0,0 STARLINK-3555,1 51863U 22022M   24214.93904782  .00005744  00000-0  37849-3 0  9990,2 51863  53.2178 114.1724 0001494  96.7334 263.3828 15.08856916134831,6917.829,95.436,540.727,538.66,0.0
51863.0,STARLINK-3555,PAYLOAD,2024-08-02 00:07:36,15.08862401,0.000143,53.2178,113.8729,99.0972,261.0182,0.00059446,9.191e-05,0.0,0 STARLINK-3555,1 51863U 22022M   24215.00528624  .00009191  00000-0  59446-3 0  9993,2 51863  53.2178 113.8729 0001430  99.0972 261.0182 15.08862401134841,6917.812,95.436,540.666,538.688,0.0
51863.0,STARLINK-3555,PAYLOAD,2024-08-02 20:47:38,15.08840498,0.0001153,53.2168,110.0079,76.974,283.1381,0.00021075,3.068e-05,0.0,0 STARLINK-3555,1 51863U 22022M   24215.86641596  .00003068  00000-0  21075-3 0  9995,2 51863  53.2168 110.0079 0001153  76.9740 283.1381 15.08840498134978,6917.879,95.438,540.541,538.946,0.0
51863.0,STARLINK-3555,PAYLOAD,2024-08-02 22:23:01,15.08840362,0.0001213,53.2167,109.7103,102.1504,257.9624,0.00018826,2.71e-05,0.0,0 STARLINK-3555,1 51863U 22022M   24215.93265515  .00002710  00000-0  18826-3 0  9999,2 51863  53.2167 109.7103 0001213 102.1504 257.9624 15.08840362134987,6917.879,95.438,540.583,538.905,0.0
51863.0,STARLINK-3555,PAYLOAD,2024-08-03 09:30:43,15.08835765,0.0001081,53.2166,107.6302,86.9644,273.1472,0.00018814,2.707e-05,0.0,0 STARLINK-3555,1 51863U 22022M   24216.39633899  .00002707  00000-0  18814-3 0  9997,2 51863  53.2166 107.6302 0001081  86.9644 273.1472 15.08835765135052,6917.893,95.438,540.506,539.011,0.0
51863.0,STARLINK-3555,PAYLOAD,2024-08-03 22:13:48,15.08851804,0.0001122,53.2167,105.2498,74.1154,285.9961,0.00068644,0.00010657,0.0,0 STARLINK-3555,1 51863U 22022M   24216.92625666  .00010657  00000-0  68644-3 0  9998,2 51863  53.2167 105.2498 0001122  74.1154 285.9961 15.08851804135139,6917.844,95.437,540.485,538.933,0.0
51863.0,STARLINK-3555,PAYLOAD,2024-08-03 23:49:11,15.08857418,0.0001061,53.2168,104.9551,94.6576,265.4537,0.00081451,0.00012705,0.0,0 STARLINK-3555,1 51863U 22022M   24216.99249472  .00012705  00000-0  81451-3 0  9999,2 51863  53.2168 104.9551 0001061  94.6576 265.4537 15.08857418135143,6917.827,95.436,540.426,538.958,0.0
51863.0,STARLINK-3555,PAYLOAD,2024-08-04 20:29:12,15.08862956,0.0001232,53.2164,101.0879,86.5751,273.5382,0.00091262,0.00014275,0.0,0 STARLINK-3555,1 51863U 22022M   24217.85361670  .00014275  00000-0  91262-3 0  9995,2 51863  53.2164 101.0879 0001232  86.5751 273.5382 15.08862956135270,6917.81,95.436,540.527,538.823,0.0
51863.0,STARLINK-3555,PAYLOAD,2024-08-04 22:04:35,15.08876798,0.0001218,53.2163,100.7918,93.1544,266.9587,0.0018093,0.00028653,0.0,0 STARLINK-3555,1 51863U 22022M   24217.91985543  .00028653  00000-0  18093-2 0  9998,2 51863  53.2163 100.7918 0001218  93.1544 266.9587 15.08876798135280,6917.768,95.435,540.475,538.79,0.0
51863.0,STARLINK-3555,PAYLOAD,2024-08-05 01:15:21,15.0887701,0.0001275,53.2159,100.1983,94.1006,266.0132,0.0023988,0.00038134,0.0,0 STARLINK-3555,1 51863U 22022M   24218.05233482  .00038134  00000-0  23988-2 0  9996,2 51863  53.2159 100.1983 0001275  94.1006 266.0132 15.08877010135306,6917.767,95.435,540.514,538.75,0.0
51863.0,STARLINK-3555,PAYLOAD,2024-08-05 21:55:22,15.08834772,0.0001388,53.216,96.3306,78.6795,281.4353,0.00060745,9.391e-05,0.0,0 STARLINK-3555,1 51863U 22022M   24218.91345692  .00009391  00000-0  60745-3 0  9994,2 51863  53.2160  96.3306 0001388  78.6795 281.4353 15.08834772135438,6917.896,95.438,540.722,538.801,0.0
51863.0,STARLINK-3555,PAYLOAD,2024-08-06 01:06:08,15.08831237,0.0001353,53.2152,95.7366,70.1675,289.9463,0.00067537,0.00010474,0.0,0 STARLINK-3555,1 51863U 22022M   24219.04593733  .00010474  00000-0  67537-3 0  9990,2 51863  53.2152  95.7366 0001353  70.1675 289.9463 15.08831237135454,6917.907,95.438,540.708,538.836,0.0
51863.0,STARLINK-3555,PAYLOAD,2024-08-06 20:10:47,15.08832988,0.0001211,53.2152,92.1656,87.3585,272.7545,0.00010437,1.373e-05,0.0,0 STARLINK-3555,1 51863U 22022M   24219.84082208  .00001373  00000-0  10437-3 0  9993,2 51863  53.2152  92.1656 0001211  87.3585 272.7545 15.08832988135578,6917.902,95.438,540.605,538.929,0.0
51863.0,STARLINK-3555,PAYLOAD,2024-08-06 21:46:10,15.08835284,0.0001192,53.2149,91.8693,85.0007,275.1121,4.2066e-05,3.82e-06,0.0,0 STARLINK-3555,1 51863U 22022M   24219.90706172  .00000382  00000-0  42066-4 0  9996,2 51863  53.2149  91.8693 0001192  85.0007 275.1121 15.08835284135583,6917.895,95.438,540.584,538.935,0.0
51863.0,STARLINK-3555,PAYLOAD,2024-08-07 00:56:56,15.08843857,0.0001346,53.2161,91.2695,98.6964,261.4181,0.00024727,3.65e-05,0.0,0 STARLINK-3555,1 51863U 22022M   24220.03954005  .00003650  00000-0  24727-3 0  9996,2 51863  53.2161  91.2695 0001346  98.6964 261.4181 15.08843857135608,6917.869,95.437,540.665,538.802,0.0
